NORAD_CAT_ID,OBJECT_NAME,OBJECT_TYPE,EPOCH,MEAN_MOTION,ECCENTRICITY,INCLINATION,RA_OF_ASC_NODE,ARG_OF_PERICENTER,MEAN_ANOMALY,BSTAR,MEAN_MOTION_DOT,MEAN_MOTION_DDOT,TLE_LINE0,TLE_LINE1,TLE_LINE2,SEMIMAJOR_AXIS,PERIOD,APOGEE,PERIGEE,DECAYED
51719.0,STARLINK-3540,PAYLOAD,2024-02-17 10:40:17,15.08839444,0.0001584,53.217,101.6702,92.722,267.3954,0.00015297,2.147e-05,0.0,0 STARLINK-3540,1 51719U 22016F   24048.44464727  .00002147  00000-0  15297-3 0  9991,2 51719  53.2170 101.6702 0001584  92.7220 267.3954 15.08839444110015,6917.882,95.438,540.843,538.651,0.0
51719.0,STARLINK-3540,PAYLOAD,2024-02-17 20:12:36,15.08838273,0.0001505,53.2165,99.8859,94.0175,266.0989,8.5611e-05,1.075e-05,0.0,0 STARLINK-3540,1 51719U 22016F   24048.84208789  .00001075  00000-0  85611-4 0  9996,2 51719  53.2165  99.8859 0001505  94.0175 266.0989 15.08838273110076,6917.886,95.438,540.792,538.71,0.0
51719.0,STARLINK-3540,PAYLOAD,2024-02-18 12:06:27,15.08849574,0.0001582,53.2165,96.9125,94.6557,265.4616,0.00025144,3.717e-05,0.0,0 STARLINK-3540,1 51719U 22016F   24049.50448381  .00003717  00000-0  25144-3 0  9993,2 51719  53.2165  96.9125 0001582  94.6557 265.4616 15.08849574111230,6917.851,95.437,540.811,538.622,0.0
51719.0,STARLINK-3540,PAYLOAD,2024-02-18 20:03:23,15.08843643,0.0001888,53.2168,95.4241,84.7012,275.4196,0.00014355,1.997e-05,0.0,0 STARLINK-3540,1 51719U 22016F   24049.83568609  .00001997  00000-0  14355-3 0  9995,2 51719  53.2168  95.4241 0001888  84.7012 275.4196 15.08843643110224,6917.869,95.437,541.04,538.428,0.0
51719.0,STARLINK-3540,PAYLOAD,2024-02-19 02:24:56,15.08836157,0.0001814,53.2162,94.2349,88.4381,271.6819,4.9333e-05,4.97e-06,0.0,0 STARLINK-3540,1 51719U 22016F   24050.10064957  .00000497  00000-0  49333-4 0  9993,2 51719  53.2162  94.2349 0001814  88.4381 271.6819 15.08836157111327,6917.892,95.438,541.012,538.502,0.0
51719.0,STARLINK-3540,PAYLOAD,2024-02-19 10:21:51,15.08842313,0.0001518,53.2158,92.7496,85.7183,274.3982,0.00014946,2.092e-05,0.0,0 STARLINK-3540,1 51719U 22016F   24050.43184767  .00002092  00000-0  14946-3 0  9995,2 51719  53.2158  92.7496 0001518  85.7183 274.3982 15.08842313110319,6917.873,95.437,540.788,538.688,0.0
51719.0,STARLINK-3540,PAYLOAD,2024-02-19 19:54:10,15.08839151,0.000161,53.2156,90.9662,77.4053,282.7119,0.00010412,1.369e-05,0.0,0 STARLINK-3540,1 51719U 22016F   24050.82929084  .00001369  00000-0  10412-3 0  9997,2 51719  53.2156  90.9662 0001610  77.4053 282.7119 15.08839151110376,6917.883,95.438,540.862,538.634,0.0
51719.0,STARLINK-3540,PAYLOAD,2024-02-20 08:37:16,15.08836138,0.0001611,53.2149,88.5859,78.8674,281.2499,4.8735e-05,4.88e-06,0.0,0 STARLINK-3540,1 51719U 22016F   24051.35921326  .00000488  00000-0  48735-4 0  9998,2 51719  53.2149  88.5859 0001611  78.8674 281.2499 15.08836138111518,6917.892,95.438,540.872,538.643,0.0
51719.0,STARLINK-3540,PAYLOAD,2024-02-20 19:44:57,15.08845826,0.0001537,53.2158,86.5043,78.5031,281.6134,9.6196e-05,1.244e-05,0.0,0 STARLINK-3540,1 51719U 22016F   24051.82288959  .00001244  00000-0  96196-4 0  9993,2 51719  53.2158  86.5043 0001537  78.5031 281.6134 15.08845826110526,6917.863,95.437,540.791,538.664,0.0
51719.0,STARLINK-3540,PAYLOAD,2024-02-21 08:28:02,15.08847883,0.0001522,53.2155,84.1254,78.3927,281.7236,0.00023931,3.523e-05,0.0,0 STARLINK-3540,1 51719U 22016F   24052.35280921  .00003523  00000-0  23931-3 0  9991,2 51719  53.2155  84.1254 0001522  78.3927 281.7236 15.08847883110605,6917.856,95.437,540.774,538.668,0.0
51719.0,STARLINK-3540,PAYLOAD,2024-02-21 19:35:44,15.08846108,0.0001525,53.2154,82.0437,78.4993,281.617,0.00022053,3.224e-05,0.0,0 STARLINK-3540,1 51719U 22016F   24052.81648915  .00003224  00000-0  22053-3 0  9995,2 51719  53.2154  82.0437 0001525  78.4993 281.6170 15.08846108110673,6917.862,95.437,540.782,538.672,0.0
51719.0,STARLINK-3540,PAYLOAD,2024-02-22 01:57:17,15.08834489,0.0001603,53.2162,80.855,83.2133,276.9042,0.00019868,2.875e-05,0.0,0 STARLINK-3540,1 51719U 22016F   24053.08145589  .00002875  00000-0  19868-3 0  9995,2 51719  53.2162  80.8550 0001603  83.2133 276.9042 15.08834489111777,6917.897,95.438,540.871,538.653,0.0
51719.0,STARLINK-3540,PAYLOAD,2024-02-22 08:18:50,15.08838393,0.0001517,53.2164,79.6629,93.4046,266.712,0.00013562,1.871e-05,0.0,0 STARLINK-3540,1 51719U 22016F   24053.34641316  .00001871  00000-0  13562-3 0  9993,2 51719  53.2164  79.6629 0001517  93.4046 266.7120 15.08838393110751,6917.885,95.438,540.8,538.701,0.0
51719.0,STARLINK-3540,PAYLOAD,2024-02-23 08:09:36,15.08843181,0.0001448,53.2173,75.2057,85.4403,274.6755,2.8046e-05,1.58e-06,0.0,0 STARLINK-3540,1 51719U 22016F   24054.34001148  .00000158  00000-0  28046-4 0  9998,2 51719  53.2173  75.2057 0001448  85.4403 274.6755 15.08843181111966,6917.871,95.437,540.737,538.734,0.0
51719.0,STARLINK-3540,PAYLOAD,2024-02-23 17:41:55,15.08844757,0.0001473,53.217,73.4214,94.92,265.196,-4.5149e-05,-1.007e-05,0.0,0 STARLINK-3540,1 51719U 22016F   24054.73745166 -.00001007  00000-0 -45149-4 0  9995,2 51719  53.2170  73.4214 0001473  94.9200 265.1960 15.08844757110968,6917.866,95.437,540.75,538.712,0.0
51719.0,STARLINK-3540,PAYLOAD,2024-02-24 01:38:51,15.08836038,0.00014,53.2166,71.9339,92.3932,267.722,9.5205e-05,1.227e-05,0.0,0 STARLINK-3540,1 51719U 22016F   24055.06865485  .00001227  00000-0  95205-4 0  9999,2 51719  53.2166  71.9339 0001400  92.3932 267.7220 15.08836038112072,6917.892,95.438,540.726,538.789,0.0
51719.0,STARLINK-3540,PAYLOAD,2024-02-24 08:00:24,15.08841021,0.0001436,53.2169,70.7444,93.1544,266.9612,0.00012969,1.777e-05,0.0,0 STARLINK-3540,1 51719U 22016F   24055.33361218  .00001777  00000-0  12969-3 0  9999,2 51719  53.2169  70.7444 0001436  93.1544 266.9612 15.08841021111057,6917.877,95.437,540.736,538.749,0.0
51719.0,STARLINK-3540,PAYLOAD,2024-02-24 17:32:43,15.08839364,0.0001437,53.2175,68.9595,90.7141,269.4016,7.7824e-05,9.51e-06,0.0,0 STARLINK-3540,1 51719U 22016F   24055.73105502  .00000951  00000-0  77824-4 0  9990,2 51719  53.2175  68.9595 0001437  90.7141 269.4016 15.08839364111117,6917.882,95.438,540.741,538.753,0.0
51719.0,STARLINK-3540,PAYLOAD,2024-02-25 04:40:25,15.08835867,0.0001564,53.218,66.8784,91.9058,268.2113,4.4116e-05,4.14e-06,0.0,0 STARLINK-3540,1 51719U 22016F   24056.19473947  .00000414  00000-0  44116-4 0  9994,2 51719  53.2180  66.8784 0001564  91.9058 268.2113 15.08835867112245,6917.893,95.438,540.84,538.676,0.0
51719.0,STARLINK-3540,PAYLOAD,2024-02-25 07:51:11,15.08838716,0.0001565,53.2182,66.2844,93.0958,267.0213,6.4827e-05,7.44e-06,0.0,0 STARLINK-3540,1 51719U 22016F   24056.32721718  .00000744  00000-0  64827-4 0  9998,2 51719  53.2182  66.2844 0001565  93.0958 267.0213 15.08838716111200,6917.884,95.438,540.832,538.667,0.0
51719.0,STARLINK-3540,PAYLOAD,2024-02-25 17:23:30,15.08839926,0.0001594,53.2186,64.5012,97.8676,262.2497,4.0029e-05,3.49e-06,0.0,0 STARLINK-3540,1 51719U 22016F   24056.72465748  .00000349  00000-0  40029-4 0  9999,2 51719  53.2186  64.5012 0001594  97.8676 262.2497 15.08839926111264,6917.881,95.438,540.848,538.643,0.0
51719.0,STARLINK-3540,PAYLOAD,2024-02-26 07:41:58,15.08842812,0.0001685,53.2193,61.825,106.07,254.0478,5.7104e-05,6.21e-06,0.0,0 STARLINK-3540,1 51719U 22016F   24057.32081594  .00000621  00000-0  57104-4 0  9994,2 51719  53.2193  61.8250 0001685 106.0700 254.0478 15.08842812112412,6917.872,95.437,540.902,538.571,0.0
51719.0,STARLINK-3540,PAYLOAD,2024-02-27 07:32:45,15.08843542,0.0001488,53.2182,57.363,88.2693,271.847,9.3738e-05,1.204e-05,0.0,0 STARLINK-3540,1 51719U 22016F   24058.31441584  .00001204  00000-0  93738-4 0  9994,2 51719  53.2182  57.3630 0001488  88.2693 271.8470 15.08843542111504,6917.87,95.437,540.764,538.705,0.0
51719.0,STARLINK-3540,PAYLOAD,2024-02-28 04:12:46,15.08837736,0.0001602,53.2184,53.4982,85.1619,274.9556,4.7917e-05,4.75e-06,0.0,0 STARLINK-3540,1 51719U 22016F   24059.17554217  .00000475  00000-0  47917-4 0  9994,2 51719  53.2184  53.4982 0001602  85.1619 274.9556 15.08837736112693,6917.887,95.438,540.861,538.644,0.0
51719.0,STARLINK-3540,PAYLOAD,2024-02-28 05:48:09,15.0883959,0.000154,53.2181,53.2007,87.121,272.9959,3.5283e-05,2.74e-06,0.0,0 STARLINK-3540,1 51719U 22016F   24059.24178109  .00000274  00000-0  35283-4 0  9994,2 51719  53.2181  53.2007 0001540  87.1210 272.9959 15.08839590111645,6917.882,95.438,540.812,538.681,0.0
51719.0,STARLINK-3540,PAYLOAD,2024-02-29 05:38:56,15.08845811,0.0001508,53.2178,48.7383,93.2299,266.8866,8.5285e-05,1.07e-05,0.0,0 STARLINK-3540,1 51719U 22016F   24060.23537470  .00001070  00000-0  85285-4 0  9997,2 51719  53.2178  48.7383 0001508  93.2299 266.8866 15.08845811112852,6917.863,95.437,540.771,538.684,0.0
51719.0,STARLINK-3540,PAYLOAD,2024-02-29 16:46:38,15.08835905,0.000142,53.2182,46.6537,110.4864,249.6281,5.7671e-05,6.3e-06,0.0,0 STARLINK-3540,1 51719U 22016F   24060.69905997  .00000630  00000-0  57671-4 0  9999,2 51719  53.2182  46.6537 0001420 110.4864 249.6281 15.08835905112929,6917.893,95.438,540.74,538.776,0.0
51719.0,STARLINK-3540,PAYLOAD,2024-03-01 08:40:30,15.08840392,0.0001516,53.2183,43.6827,88.659,271.4576,3.3236e-05,2.41e-06,0.0,0 STARLINK-3540,1 51719U 22016F   24061.36146098  .00000241  00000-0  33236-4 0  9992,2 51719  53.2183  43.6827 0001516  88.6590 271.4576 15.08840392111966,6917.879,95.438,540.793,538.695,0.0
51719.0,STARLINK-3540,PAYLOAD,2024-03-02 03:45:07,15.08847394,0.0001578,53.2194,40.1134,91.3017,268.8156,8.2915e-05,1.032e-05,0.0,0 STARLINK-3540,1 51719U 22016F   24062.15633361  .00001032  00000-0  82915-4 0  9991,2 51719  53.2194  40.1134 0001578  91.3017 268.8156 15.08847394113149,6917.858,95.437,540.814,538.631,0.0
51719.0,STARLINK-3540,PAYLOAD,2024-03-02 05:20:30,15.0885061,0.0001637,53.2193,39.8163,103.0024,257.1151,0.00010364,1.362e-05,0.0,0 STARLINK-3540,1 51719U 22016F   24062.22257080  .00001362  00000-0  10364-3 0  9993,2 51719  53.2193  39.8163 0001637 103.0024 257.1151 15.08850610112094,6917.848,95.437,540.845,538.581,0.0
